OBJECT_NAME,OBJECT_ID,EPOCH,MEAN_MOTION,ECCENTRICITY,INCLINATION,RA_OF_ASC_NODE,ARG_OF_PERICENTER,MEAN_ANOMALY,EPHEMERIS_TYPE,CLASSIFICATION_TYPE,NORAD_CAT_ID,ELEMENT_SET_NO,REV_AT_EPOCH,BSTAR,MEAN_MOTION_DOT,MEAN_MOTION_DDOT
PERSEUS-M1,2014-033AF,2026-05-10T08:50:22.411680,14.95501915,.0012912,97.9623,73.8888,66.0365,294.2205,0,U,40039,999,64498,.10356E-3,.1088E-4,0
POLYITAN-1,2014-033AJ,2026-05-10T12:13:29.809056,15.31964332,.0005346,98.0979,153.2444,277.8562,82.2070,0,U,40042,999,64782,.35566E-3,.10896E-3,0
TIGRISAT,2014-033AK,2026-05-10T09:13:02.585280,14.85000161,.0049076,97.7786,281.2767,197.0711,162.8855,0,U,40043,999,64001,.17851E-3,.15E-4,0
AEROCUBE 6A,2014-033AM,2026-05-10T09:55:52.701024,14.97684750,.0040157,97.7211,297.7835,140.2144,220.2035,0,U,40045,999,64096,.42246E-3,.497E-4,0
AEROCUBE 6B,2014-033AN,2026-05-10T10:51:33.479712,14.99109786,.0037731,97.7177,297.5373,133.5047,226.9323,0,U,40046,999,64110,.33322E-3,.4048E-4,0
CANX-4,2014-034C,2026-05-10T12:36:22.745664,14.81194156,.0013787,98.3173,4.4481,128.4497,231.7954,0,U,40055,999,63895,.8249E-4,.585E-5,0
CANX-5,2014-034D,2026-05-10T09:20:11.734080,14.81210877,.0013768,98.3174,4.3480,129.0790,231.1648,0,U,40056,999,62974,.80825E-4,.573E-5,0
UKUBE-1,2014-037F,2026-05-10T11:26:56.292288,15.12948833,.0000535,98.4249,129.8081,41.1506,318.9763,0,U,40074,999,64285,.31658E-3,.5504E-4,0
BRITE-PL2 (HEWELIUSZ),2014-049B,2026-05-10T06:39:06.780384,14.94452111,.00129121,97.9055,241.9982,231.7846,128.2212,0,U,40119,999,63578,.11135412E-3,.1143E-4,0
AEROCUBE 5C,2015-058B,2026-05-10T03:34:33.981888,14.91236274,.01297397,64.7689,20.9049,78.2292,283.3340,0,U,40965,999,35998,.20469794E-3,.2219E-4,0
AEROCUBE 7,2015-058C,2026-05-09T23:39:06.197760,14.95427346,.01195483,64.7639,4.4442,76.9999,284.4431,0,U,40966,999,36024,.26618969E-3,.3224E-4,0
FOX-1A (AO-85),2015-058D,2026-05-10T10:51:34.146720,14.90745048,.0128888,64.7765,36.2300,71.3905,290.1153,0,U,40967,999,10794,.20872E-3,.223E-4,0
SINOD-D 1,2015-058E,2026-05-10T07:15:20.901600,14.95606861,.0117378,64.7769,17.5250,68.2511,293.1047,0,U,40968,999,11099,.25218E-3,.3043E-4,0
SNAP-3 ALICE,2015-058G,2026-05-10T12:17:48.208128,15.53135398,.0032575,64.7528,233.3695,32.2692,328.0434,0,U,40970,999,11102,.76252E-3,.49237E-3,0
LMRST-SAT,2015-058H,2026-05-10T11:10:07.466880,14.90370607,.0130671,64.7772,32.4572,73.4037,288.1378,0,U,40971,999,10793,.2086E-3,.2216E-4,0
SNAP-3 EDDIE,2015-058J,2026-05-10T12:44:40.636032,15.54292499,.0033083,64.7445,224.2985,35.9055,324.4302,0,U,40972,999,11316,.79702E-3,.53787E-3,0
PROPCUBE 3,2015-058K,2026-05-10T09:24:46.755648,14.93997350,.0122879,64.7705,10.5977,74.9578,286.5095,0,U,40973,999,10915,.21962E-3,.2543E-4,0
BISONSAT,2015-058L,2026-05-09T19:58:51.824064,15.15414606,.00786093,64.7596,297.5648,63.9629,296.9561,0,U,40974,999,10980,.44309193E-3,.8892E-4,0
SNAP-3 JIMI,2015-058M,2026-05-10T07:21:22.533120,15.01907557,.0104834,64.7665,339.5880,71.0628,290.1817,0,U,40975,999,10853,.29187E-3,.4121E-4,0
PROPCUBE 1 (FLORA),2015-058N,2026-05-10T12:28:42.366720,14.89005575,.0129493,64.7757,51.9557,75.6626,285.8821,0,U,40976,999,11065,.20803E-3,.212E-4,0
SINOD-D 3,2015-058P,2026-05-10T01:58:55.766496,14.93722665,.01179789,64.7740,34.7796,73.3437,288.0590,0,U,40977,999,10906,.26779503E-3,.3082E-4,0
HORYU-4,2016-012D,2026-05-09T18:25:10.260768,15.77249913,.00058467,30.9893,356.5603,357.1247,2.9376,0,U,41340,999,56471,.74260398E-3,.129383E-2,0
RAVAN,2016-067B,2026-05-10T09:50:29.870016,15.51267187,.0007179,97.9939,15.7235,126.4480,233.7433,0,U,41849,999,52183,.49407E-3,.28944E-3,0
CELTEE 1,2016-067C,2026-05-10T08:11:41.364672,15.19307396,.000192,98.0723,354.3291,62.0255,298.1172,0,U,41850,999,52013,.15363E-3,.3165E-4,0
OPTICUBE 04,2016-067D,2026-05-10T11:53:25.088928,15.09498408,.0014371,98.0740,340.8093,243.0535,116.9225,0,U,41851,999,51948,.84823E-4,.129E-4,0
AEROCUBE 8D,2016-067E,2026-05-10T12:52:08.499936,15.23869532,.0001871,98.0737,357.8502,261.3178,98.7846,0,U,41852,999,52033,.19389E-3,.4596E-4,0
AEROCUBE 8C,2016-067F,2026-05-10T12:02:11.887008,15.24106609,.0005296,98.0608,355.0899,175.0695,185.0593,0,U,41853,999,52032,.2156E-3,.5158E-4,0
CORVUS BC2,2017-042X,2026-05-10T11:01:24.433248,15.06054249,.0011943,97.4038,293.2912,237.6832,122.3239,0,U,42846,999,48138,.1825E-3,.2608E-4,0
CORVUS BC1,2017-042Y,2026-05-10T09:24:09.232128,15.06226152,.0011163,97.4071,294.0156,211.5973,148.4586,0,U,42847,999,48140,.18298E-3,.2627E-4,0
MAKERSAT 0,2017-073D,2026-05-10T09:50:14.933184,15.30488705,.0112145,97.4681,12.6715,48.1729,312.9021,0,U,43016,999,46068,.45026E-3,.16059E-3,0
