PERSEUS-M1              
1 40039U 14033AF  26130.36831495  .00001088  00000+0  10356-3 0  9992
2 40039  97.9623  73.8888 0012912  66.0365 294.2205 14.95501915644982
POLYITAN-1              
1 40042U 14033AJ  26130.50937279  .00010896  00000+0  35566-3 0  9996
2 40042  98.0979 153.2444 0005346 277.8562  82.2070 15.31964332647825
TIGRISAT                
1 40043U 14033AK  26130.38405770  .00001500  00000+0  17851-3 0  9998
2 40043  97.7786 281.2767 0049076 197.0711 162.8855 14.85000161640014
AEROCUBE 6A             
1 40045U 14033AM  26130.41380441  .00004970  00000+0  42246-3 0  9991
2 40045  97.7211 297.7835 0040157 140.2144 220.2035 14.97684750640966
AEROCUBE 6B             
1 40046U 14033AN  26130.45247083  .00004048  00000+0  33322-3 0  9991
2 40046  97.7177 297.5373 0037731 133.5047 226.9323 14.99109786641107
CANX-4                  
1 40055U 14034C   26130.52526326  .00000585  00000+0  82490-4 0  9993
2 40055  98.3173   4.4481 0013787 128.4497 231.7954 14.81194156638951
CANX-5                  
1 40056U 14034D   26130.38902470  .00000573  00000+0  80825-4 0  9993
2 40056  98.3174   4.3480 0013768 129.0790 231.1648 14.81210877629743
UKUBE-1                 
1 40074U 14037F   26130.47704042  .00005504  00000+0  31658-3 0  9999
2 40074  98.4249 129.8081 0000535  41.1506 318.9763 15.12948833642858
BRITE-PL2 (HEWELIUSZ)   
1 40119U 14049B   26130.27716181  .00001143  00000+0  11135-3 0  9990
2 40119  97.9055 241.9982 0012912 231.7846 128.2212 14.94452111635782
AEROCUBE 5C             
1 40965U 15058B   26130.14900442  .00002219  00000+0  20470-3 0  9998
2 40965  64.7689  20.9049 0129739  78.2292 283.3340 14.91236274359987
AEROCUBE 7              
1 40966U 15058C   26129.98548840  .00003224  00000+0  26619-3 0  9997
2 40966  64.7639   4.4442 0119548  76.9999 284.4431 14.95427346360243
FOX-1A (AO-85)          
1 40967U 15058D   26130.45247855  .00002230  00000+0  20872-3 0  9995
2 40967  64.7765  36.2300 0128888  71.3905 290.1153 14.90745048107941
SINOD-D 1               
1 40968U 15058E   26130.30232525  .00003043  00000+0  25218-3 0  9990
2 40968  64.7769  17.5250 0117378  68.2511 293.1047 14.95606861110990
SNAP-3 ALICE            
1 40970U 15058G   26130.51236352  .00049237  00000+0  76252-3 0  9997
2 40970  64.7528 233.3695 0032575  32.2692 328.0434 15.53135398111023
LMRST-SAT               
1 40971U 15058H   26130.46536420  .00002216  00000+0  20860-3 0  9991
2 40971  64.7772  32.4572 0130671  73.4037 288.1378 14.90370607107935
SNAP-3 EDDIE            
1 40972U 15058J   26130.53102588  .00053787  00000+0  79702-3 0  9992
2 40972  64.7445 224.2985 0033083  35.9055 324.4302 15.54292499113160
PROPCUBE 3              
1 40973U 15058K   26130.39220782  .00002543  00000+0  21962-3 0  9993
2 40973  64.7705  10.5977 0122879  74.9578 286.5095 14.93997350109153
BISONSAT                
1 40974U 15058L   26129.83254426  .00008892  00000+0  44309-3 0  9996
2 40974  64.7596 297.5648 0078609  63.9629 296.9561 15.15414606109808
SNAP-3 JIMI             
1 40975U 15058M   26130.30651080  .00004121  00000+0  29187-3 0  9996
2 40975  64.7665 339.5880 0104834  71.0628 290.1817 15.01907557108536
PROPCUBE 1 (FLORA)      
1 40976U 15058N   26130.51993480  .00002120  00000+0  20803-3 0  9996
2 40976  64.7757  51.9557 0129493  75.6626 285.8821 14.89005575110657
SINOD-D 3               
1 40977U 15058P   26130.08258989  .00003082  00000+0  26780-3 0  9995
2 40977  64.7740  34.7796 0117978  73.3437 288.0590 14.93722665109066
HORYU-4                 
1 41340U 16012D   26129.76747987  .00129383  00000+0  74260-3 0  9994
2 41340  30.9893 356.5603 0005846 357.1247   2.9376 15.77249913564714
RAVAN                   
1 41849U 16067B   26130.41006794  .00028944  00000+0  49407-3 0  9992
2 41849  97.9939  15.7235 0007179 126.4480 233.7433 15.51267187521833
CELTEE 1                
1 41850U 16067C   26130.34145098  .00003165  00000+0  15363-3 0  9999
2 41850  98.0723 354.3291 0001920  62.0255 298.1172 15.19307396520133
OPTICUBE 04             
1 41851U 16067D   26130.49542927  .00001290  00000+0  84823-4 0  9993
2 41851  98.0740 340.8093 0014371 243.0535 116.9225 15.09498408519485
AEROCUBE 8D             
1 41852U 16067E   26130.53620949  .00004596  00000+0  19389-3 0  9996
2 41852  98.0737 357.8502 0001871 261.3178  98.7846 15.23869532520330
AEROCUBE 8C             
1 41853U 16067F   26130.50152647  .00005158  00000+0  21560-3 0  9998
2 41853  98.0608 355.0899 0005296 175.0695 185.0593 15.24106609520325
CORVUS BC2              
1 42846U 17042X   26130.45931057  .00002608  00000+0  18250-3 0  9998
2 42846  97.4038 293.2912 0011943 237.6832 122.3239 15.06054249481386
CORVUS BC1              
1 42847U 17042Y   26130.39177352  .00002627  00000+0  18298-3 0  9995
2 42847  97.4071 294.0156 0011163 211.5973 148.4586 15.06226152481405
MAKERSAT 0              
1 43016U 17073D   26130.40989506  .00016059  00000+0  45026-3 0  9995
2 43016  97.4681  12.6715 0112145  48.1729 312.9021 15.30488705460681
